[
    {
        "Altitude(m)": 604969.089195197,
        "Argument of Periapsis(deg)": 0.0,
        "Eccentricity": 0.0,
        "Inclination(deg)": 60.0,
        "Latitude(deg)": -0.09270983300954082,
        "Longitude(deg)": -35.02247225027442,
        "Mean Anomaly(deg)": 0.0,
        "RAAN(deg)": 65.0,
        "Satellite Name": "Test1 286",
        "Satellite Number": 286,
        "Semi-Major Axis(m)": 6980739.136638005,
        "Time(s)": 0
    },
    {
        "Altitude(m)": 604900.0283509203,
        "Argument of Periapsis(deg)": 0.00010418945913296404,
        "Eccentricity": 0.0,
        "Inclination(deg)": 60.0,
        "Latitude(deg)": 0.4477164869056532,
        "Longitude(deg)": -34.75435006718608,
        "Mean Anomaly(deg)": 0.6201061454618275,
        "RAAN(deg)": 64.99957995086025,
        "Satellite Name": "Test1 286",
        "Satellite Number": 286,
        "Semi-Major Axis(m)": 6980739.136638005,
        "Time(s)": 10
    },
    {
        "Altitude(m)": 604834.1955805126,
        "Argument of Periapsis(deg)": 0.0002083789182659281,
        "Eccentricity": 0.0,
        "Inclination(deg)": 60.0,
        "Latitude(deg)": 0.988139582154362,
        "Longitude(deg)": -34.48617647739966,
        "Mean Anomaly(deg)": 1.240212290923655,
        "RAAN(deg)": 64.99915990172052,
        "Satellite Name": "Test1 286",
        "Satellite Number": 286,
        "Semi-Major Axis(m)": 6980739.136638005,
        "Time(s)": 20
    },
    {
        "Altitude(m)": 604771.5972631358,
        "Argument of Periapsis(deg)": 0.00031256837739889213,
        "Eccentricity": 0.0,
        "Inclination(deg)": 60.0,
        "Latitude(deg)": 1.5285423667874352,
        "Longitude(deg)": -34.217897091621225,
        "Mean Anomaly(deg)": 1.8603184363854954,
        "RAAN(deg)": 64.99873985258077,
        "Satellite Name": "Test1 286",
        "Satellite Number": 286,
        "Semi-Major Axis(m)": 6980739.136638005,
        "Time(s)": 30
    },
    {
        "Altitude(m)": 604712.2382480507,
        "Argument of Periapsis(deg)": 0.0004167578365318562,
        "Eccentricity": 0.0,
        "Inclination(deg)": 60.0,
        "Latitude(deg)": 2.068907733395507,
        "Longitude(deg)": -33.94945695201848,
        "Mean Anomaly(deg)": 2.480424581847323,
        "RAAN(deg)": 64.99831980344103,
        "Satellite Name": "Test1 286",
        "Satellite Number": 286,
        "Semi-Major Axis(m)": 6980739.136638005,
        "Time(s)": 40
    },
    {
        "Altitude(m)": 604656.1218550699,
        "Argument of Periapsis(deg)": 0.0005209472956648203,
        "Eccentricity": 0.0,
        "Inclination(deg)": 60.0,
        "Latitude(deg)": 2.609218543196545,
        "Longitude(deg)": -33.68080150878578,
        "Mean Anomaly(deg)": 3.1005307273091502,
        "RAAN(deg)": 64.9978997543013,
        "Satellite Name": "Test1 286",
        "Satellite Number": 286,
        "Semi-Major Axis(m)": 6980739.136638005,
        "Time(s)": 50
    },
    {
        "Altitude(m)": 604603.2498757463,
        "Argument of Periapsis(deg)": 0.0006251367547977843,
        "Eccentricity": 0.0,
        "Inclination(deg)": 60.0,
        "Latitude(deg)": 3.1494576160855914,
        "Longitude(deg)": -33.411876083746876,
        "Mean Anomaly(deg)": 3.720636872770978,
        "RAAN(deg)": 64.99747970516155,
        "Satellite Name": "Test1 286",
        "Satellite Number": 286,
        "Semi-Major Axis(m)": 6980739.136638005,
        "Time(s)": 60
    },
    {
        "Altitude(m)": 604553.6225753273,
        "Argument of Periapsis(deg)": 0.0007293262139307483,
        "Eccentricity": 0.0,
        "Inclination(deg)": 60.0,
        "Latitude(deg)": 3.6896077206313604,
        "Longitude(deg)": -33.14262533383975,
        "Mean Anomaly(deg)": 4.340743018232819,
        "RAAN(deg)": 64.99705965602182,
        "Satellite Name": "Test1 286",
        "Satellite Number": 286,
        "Semi-Major Axis(m)": 6980739.136638005,
        "Time(s)": 70
    },
    {
        "Altitude(m)": 604507.2386954644,
        "Argument of Periapsis(deg)": 0.0008335156730637124,
        "Eccentricity": 0.0,
        "Inclination(deg)": 60.0,
        "Latitude(deg)": 4.229651564003888,
        "Longitude(deg)": -32.87299422732733,
        "Mean Anomaly(deg)": 4.960849163694646,
        "RAAN(deg)": 64.99663960688207,
        "Satellite Name": "Test1 286",
        "Satellite Number": 286,
        "Semi-Major Axis(m)": 6980739.136638005,
        "Time(s)": 80
    },
    {
        "Altitude(m)": 604464.0954576589,
        "Argument of Periapsis(deg)": 0.0009377051321966765,
        "Eccentricity": 0.0,
        "Inclination(deg)": 60.0,
        "Latitude(deg)": 4.769571781824097,
        "Longitude(deg)": -32.6029275069598,
        "Mean Anomaly(deg)": 5.580955309156474,
        "RAAN(deg)": 64.99621955774234,
        "Satellite Name": "Test1 286",
        "Satellite Number": 286,
        "Semi-Major Axis(m)": 6980739.136638005,
        "Time(s)": 90
    },
    {
        "Altitude(m)": 604424.188567464,
        "Argument of Periapsis(deg)": 0.0010418945913296407,
        "Eccentricity": 0.0,
        "Inclination(deg)": 60.0,
        "Latitude(deg)": 5.3093509279191995,
        "Longitude(deg)": -32.33236915293127,
        "Mean Anomaly(deg)": 6.2010614546183005,
        "RAAN(deg)": 64.99579950860257,
        "Satellite Name": "Test1 286",
        "Satellite Number": 286,
        "Semi-Major Axis(m)": 6980739.136638005,
        "Time(s)": 100
    },
    {
        "Altitude(m)": 604387.5122194377,
        "Argument of Periapsis(deg)": 0.0011460840504626045,
        "Eccentricity": 0.0,
        "Inclination(deg)": 60.0,
        "Latitude(deg)": 5.848971463968001,
        "Longitude(deg)": -32.061263358476396,
        "Mean Anomaly(deg)": 6.821167600080129,
        "RAAN(deg)": 64.99537945946282,
        "Satellite Name": "Test1 286",
        "Satellite Number": 286,
        "Semi-Major Axis(m)": 6980739.136638005,
        "Time(s)": 110
    },
    {
        "Altitude(m)": 604354.0591028102,
        "Argument of Periapsis(deg)": 0.0012502735095955685,
        "Eccentricity": 0.0,
        "Inclination(deg)": 60.0,
        "Latitude(deg)": 6.388415749026364,
        "Longitude(deg)": -31.78955399233018,
        "Mean Anomaly(deg)": 7.441273745541969,
        "RAAN(deg)": 64.99495941032309,
        "Satellite Name": "Test1 286",
        "Satellite Number": 286,
        "Semi-Major Axis(m)": 6980739.136638005,
        "Time(s)": 120
    },
    {
        "Altitude(m)": 604323.8204079422,
        "Argument of Periapsis(deg)": 0.0013544629687285324,
        "Eccentricity": 0.0,
        "Inclination(deg)": 60.0,
        "Latitude(deg)": 6.927666028916346,
        "Longitude(deg)": -31.517184060895634,
        "Mean Anomaly(deg)": 8.061379891003797,
        "RAAN(deg)": 64.99453936118334,
        "Satellite Name": "Test1 286",
        "Satellite Number": 286,
        "Semi-Major Axis(m)": 6980739.136638005,
        "Time(s)": 130
    },
    {
        "Altitude(m)": 604296.7858334566,
        "Argument of Periapsis(deg)": 0.0014586524278614966,
        "Eccentricity": 0.0,
        "Inclination(deg)": 60.0,
        "Latitude(deg)": 7.466704425462542,
        "Longitude(deg)": -31.244096682962727,
        "Mean Anomaly(deg)": 8.681486036465625,
        "RAAN(deg)": 64.99411931204361,
        "Satellite Name": "Test1 286",
        "Satellite Number": 286,
        "Semi-Major Axis(m)": 6980739.136638005,
        "Time(s)": 140
    },
    {
        "Altitude(m)": 604272.94359414,
        "Argument of Periapsis(deg)": 0.0015628418869944607,
        "Eccentricity": 0.0,
        "Inclination(deg)": 60.0,
        "Latitude(deg)": 8.005512925565043,
        "Longitude(deg)": -30.970234551203177,
        "Mean Anomaly(deg)": 9.301592181927452,
        "RAAN(deg)": 64.99369926290386,
        "Satellite Name": "Test1 286",
        "Satellite Number": 286,
        "Semi-Major Axis(m)": 6980739.136638005,
        "Time(s)": 150
    },
    {
        "Altitude(m)": 604252.280429573,
        "Argument of Periapsis(deg)": 0.0016670313461274247,
        "Eccentricity": 0.0,
        "Inclination(deg)": 60.0,
        "Latitude(deg)": 8.544073370092109,
        "Longitude(deg)": -30.695539393284434,
        "Mean Anomaly(deg)": 9.921698327389292,
        "RAAN(deg)": 64.99327921376413,
        "Satellite Name": "Test1 286",
        "Satellite Number": 286,
        "Semi-Major Axis(m)": 6980739.136638005,
        "Time(s)": 160
    },
    {
        "Altitude(m)": 604234.7816134525,
        "Argument of Periapsis(deg)": 0.0017712208052603888,
        "Eccentricity": 0.0,
        "Inclination(deg)": 60.0,
        "Latitude(deg)": 9.082367442574846,
        "Longitude(deg)": -30.419952945446784,
        "Mean Anomaly(deg)": 10.541804472851119,
        "RAAN(deg)": 64.99285916462438,
        "Satellite Name": "Test1 286",
        "Satellite Number": 286,
        "Semi-Major Axis(m)": 6980739.136638005,
        "Time(s)": 170
    },
    {
        "Altitude(m)": 604220.4309636563,
        "Argument of Periapsis(deg)": 0.001875410264393353,
        "Eccentricity": 0.0,
        "Inclination(deg)": 60.0,
        "Latitude(deg)": 9.620376657693178,
        "Longitude(deg)": -30.14341641276746,
        "Mean Anomaly(deg)": 11.161910618312948,
        "RAAN(deg)": 64.99243911548463,
        "Satellite Name": "Test1 286",
        "Satellite Number": 286,
        "Semi-Major Axis(m)": 6980739.136638005,
        "Time(s)": 180
    },
    {
        "Altitude(m)": 604209.2108530031,
        "Argument of Periapsis(deg)": 0.0019795997235263173,
        "Eccentricity": 0.0,
        "Inclination(deg)": 60.0,
        "Latitude(deg)": 10.158082349534466,
        "Longitude(deg)": -29.86586992895485,
        "Mean Anomaly(deg)": 11.782016763774774,
        "RAAN(deg)": 64.9920190663449,
        "Satellite Name": "Test1 286",
        "Satellite Number": 286,
        "Semi-Major Axis(m)": 6980739.136638005,
        "Time(s)": 190
    }
]